dentist_id,address,city,state,zipcode
102131,3784 West Green Street,Crestview,ME,04608
102817,282 South Lee St.,Crestview,ME,04608
103102,2014 Miller Ave.,Chames,ME,04498
103322,2311 West Green Way,Belkas,ME,04012
105129,4831 North Meadow St.,Chames,ME,04498
106512,4809 South Maple Circle,Belkas,ME,04012
107001,199 Laurel Street,Crestview,ME,04608
107771,1039 East Highland St.,Belkas,ME,04012
107885,4492 Sunset Street,Danniton,ME,03913
109576,1028 West Lincoln Avenue,Laken,ME,04405
109711,3206 South Green Avenue,Danniton,ME,03913
109730,2677 East Mill Street,Crestview,ME,04608
110415,2977 Ash Ave.,Chames,ME,04498
110662,3183 South Fourteenth St.,Belkas,ME,04012
111954,1763 North Birch Avenue,Danniton,ME,03913
113614,3449 East Mill Street,Danniton,ME,03913
114282,1213 West Lee Ave.,Chames,ME,04498
115322,2948 North Ninth Circle,Crestview,ME,04608
115417,1625 North Sycamore St.,Laken,ME,04405
115984,3326 West Maple St.,Belkas,ME,04012
116572,3245 South Ninth Circle,Crestview,ME,04608
117395,3203 West Sycamore Way,Belkas,ME,04012
119267,3595 South Taylor Avenue,Crestview,ME,04608
120217,36 Oak Ave.,Chames,ME,04498
121327,3868 North Lincoln Ave.,Belkas,ME,04012
122814,4836 South Maple St.,Crestview,ME,04608
122822,1855 North Cherry Way,Chames,ME,04498
123423,2728 West Park Way,Danniton,ME,03913
123675,4530 South Madison Way,Danniton,ME,03913
124745,1102 East Highland Street,Crestview,ME,04608
124945,4155 Dogwood,Chames,ME,04498
125471,1041 West Wilson St.,Belkas,ME,04012
126127,4713 North Mill Ave.,Belkas,ME,04012
126865,3065 North College Way,Crestview,ME,04608
127417,2881 North Miller Circle,Laken,ME,04405
129107,1460 East Madison Avenue,Chames,ME,04498
130421,728 East River Ave.,Laken,ME,04405
133608,4691 West Park Avenue,Crestview,ME,04608
138869,4552 North Fourteenth Ave.,Belkas,ME,04012
138946,756 East River Avenue,Belkas,ME,04012
139825,2599 Madison Street,Belkas,ME,04012
139984,4713 East Willow Street,Chames,ME,04498
140017,750 Cedar Way,Danniton,ME,03913
140822,1648 North Oak Ave.,Danniton,ME,03913
141115,2611 South Ninth Street,Laken,ME,04405
141436,801 South Valley,Chames,ME,04498
141750,3733 Maple Avenue,Belkas,ME,04012
142146,1374 South Jefferson Way,Belkas,ME,04012
144231,3095 Central Street,Danniton,ME,03913
144769,3561 South Sycamore Avenue,Danniton,ME,03913
145026,1612 Forest Avenue,Belkas,ME,04012
146363,2705 South Railroad St.,Danniton,ME,03913
148095,770 North Meadow,Crestview,ME,04608
148157,3956 East River Street,Chames,ME,04498
148703,2377 South Highland Ave.,Laken,ME,04405
149237,509 Ash Ave.,Laken,ME,04405
152489,1394 West Laurel St.,Danniton,ME,03913
152661,2347 West Railroad Circle,Belkas,ME,04012
154215,3370 North River Avenue,Chames,ME,04498
154285,1517 South Sunset Way,Danniton,ME,03913
158706,2064 South Cherry Way,Chames,ME,04498
159180,3241 West Lakeview Circle,Danniton,ME,03913
159219,1084 North Park Ave.,Crestview,ME,04608
159252,1670 South Sycamore,Belkas,ME,04012
160783,3786 East Mill St.,Belkas,ME,04012
160876,4789 East Highland Street,Belkas,ME,04012
160892,429 East Jefferson Way,Chames,ME,04498
163217,2086 East Sixth,Crestview,ME,04608
163317,98 North Wilson Ave.,Laken,ME,04405
165222,3493 Mill St.,Laken,ME,04405
165342,3854 Lee Way,Crestview,ME,04608
166774,3520 West Smith Avenue,Crestview,ME,04608
166825,4337 South Jefferson,Danniton,ME,03913
166877,799 East Valley St.,Crestview,ME,04608
166978,4417 East Pine Circle,Danniton,ME,03913
168245,3428 North Green Avenue,Danniton,ME,03913
168692,3489 East Smith,Crestview,ME,04608
169618,3018 Chestnut Street,Laken,ME,04405
169623,4093 North Hickory Street,Laken,ME,04405
169872,3761 West Central,Crestview,ME,04608
171346,3321 West Center Ave.,Crestview,ME,04608
171504,4221 West Madison Way,Laken,ME,04405
173235,3106 North Lee Ave.,Danniton,ME,03913
173899,1772 East Valley Ave.,Chames,ME,04498
174216,2612 Pine Avenue,Laken,ME,04405
176297,4783 Lee Ave.,Chames,ME,04498
177857,1524 Fourteenth St.,Belkas,ME,04012
178365,1451 North Ash St.,Chames,ME,04498
178942,2611 West Woodland Street,Crestview,ME,04608
178944,190 South Cedar Street,Laken,ME,04405
180613,1833 Park Avenue,Crestview,ME,04608
181481,4450 North Railroad St.,Danniton,ME,03913
181767,3478 Poplar Avenue,Danniton,ME,03913
183421,42 East Railroad Street,Belkas,ME,04012
184825,1707 West River St.,Belkas,ME,04012
184890,2230 Laurel Street,Danniton,ME,03913
186734,3242 Sycamore Circle,Danniton,ME,03913
187522,3248 West Taylor Street,Chames,ME,04498
187816,1208 West Ninth Circle,Chames,ME,04498
188221,206 North Central Circle,Laken,ME,04405
188856,4761 North Mill Circle,Laken,ME,04405
190027,1372 Highland Avenue,Laken,ME,04405
192948,2340 East Ninth Street,Danniton,ME,03913
193713,141 East Cedar Way,Belkas,ME,04012
194024,50 College Avenue,Danniton,ME,03913
194158,1584 East Maple,Crestview,ME,04608
194411,3884 North Cedar,Belkas,ME,04012
194461,2946 West Chestnut Way,Laken,ME,04405
194538,4959 North Taylor Circle,Belkas,ME,04012
194585,698 College,Laken,ME,04405
194932,2395 North Hickory Circle,Chames,ME,04498
195040,1886 Ninth Ave.,Belkas,ME,04012
195622,4837 Lee Circle,Laken,ME,04405
195651,1798 North Lakeview Way,Crestview,ME,04608
196090,235 South Pine St.,Danniton,ME,03913
196406,822 Franklin,Danniton,ME,03913
197392,1519 Maple Avenue,Chames,ME,04498
197866,1741 East Ash Street,Chames,ME,04498
199443,431 South Fourteenth,Chames,ME,04498
201098,1738 West Ridge St.,Chames,ME,04498
201605,1073 West Willow Ave.,Chames,ME,04498
201857,4352 East Woodland Ave.,Crestview,ME,04608
202122,3699 Willow Street,Crestview,ME,04608
202392,2296 West Fourteenth Avenue,Laken,ME,04405
202950,4337 North Ninth Way,Danniton,ME,03913
205139,1274 West Ash Street,Chames,ME,04498
205962,2696 South Smith Street,Laken,ME,04405
207337,2521 South Smith Circle,Chames,ME,04498
207486,1879 North Franklin,Crestview,ME,04608
207581,4788 South Woodland Ave.,Danniton,ME,03913
208177,4092 North Lincoln Avenue,Chames,ME,04498
208257,4425 South Railroad,Danniton,ME,03913
209622,2324 South Dogwood Circle,Laken,ME,04405
212594,3390 South Park Circle,Chames,ME,04498
213860,4480 East Franklin Way,Danniton,ME,03913
214646,3219 South Sycamore,Danniton,ME,03913
215960,411 East Sycamore,Chames,ME,04498
217065,4577 West Highland,Chames,ME,04498
217508,4270 South Cedar Street,Crestview,ME,04608
217785,371 Central Ave.,Belkas,ME,04012
220484,2912 North Valley Avenue,Laken,ME,04405
220516,4105 West Pine Way,Danniton,ME,03913
221268,4537 South Woodland Circle,Laken,ME,04405
222618,1192 East Central Circle,Laken,ME,04405
222666,56 Railroad,Crestview,ME,04608
224090,3820 North Madison Avenue,Danniton,ME,03913
224784,2342 South Lee Street,Danniton,ME,03913
225252,1870 South Sycamore Avenue,Crestview,ME,04608
226579,3859 West Jackson St.,Chames,ME,04498
227489,4540 East Sixth St.,Danniton,ME,03913
228614,4847 South Birch Street,Danniton,ME,03913
228852,4845 Wilson Avenue,Laken,ME,04405
229892,1790 North Mill St.,Belkas,ME,04012
230387,4754 West Taylor,Danniton,ME,03913
230552,3828 West Sunset St.,Danniton,ME,03913
230825,274 South Cedar Way,Belkas,ME,04012
232021,1013 South Broadway St.,Chames,ME,04498
232293,1865 South Ash,Belkas,ME,04012
233042,2373 West Broadway Street,Danniton,ME,03913
233240,527 North Park Way,Laken,ME,04405
233728,1868 East Lee Street,Chames,ME,04498
234031,1875 East Sixth,Crestview,ME,04608
234989,696 East Meadow Street,Crestview,ME,04608
238586,3305 North Highland Street,Chames,ME,04498
239761,3367 North Birch Street,Danniton,ME,03913
242218,228 North Smith Street,Chames,ME,04498
245465,1598 East Central Way,Danniton,ME,03913
248280,3060 West Forest Way,Belkas,ME,04012
248335,497 East Dogwood Circle,Laken,ME,04405
248541,4275 North Smith Circle,Chames,ME,04498
249439,3637 South Ash St.,Belkas,ME,04012
249708,1828 South Pine Street,Laken,ME,04405
253093,Post Office Box 5122,Belkas,ME,04012
253449,1333 West Center Way,Laken,ME,04405
255475,3280 North Hickory Avenue,Belkas,ME,04012
256141,2546 North Lee Street,Chames,ME,04498
257058,154 North Ash Circle,Laken,ME,04405
257504,956 West Cherry Avenue,Chames,ME,04498
261480,2706 East Sycamore Circle,Belkas,ME,04012
261648,3028 Forest St.,Crestview,ME,04608
262093,1894 North Oak St.,Crestview,ME,04608
262874,673 North Jackson,Belkas,ME,04012
263816,4515 South Oak Street,Crestview,ME,04608
265272,4751 West Miller Street,Laken,ME,04405
266981,2982 West Oak Circle,Danniton,ME,03913
268205,2756 Forest Way,Crestview,ME,04608
268737,3086 North Pine,Danniton,ME,03913
268866,4707 East Center Street,Crestview,ME,04608
272547,3429 North Woodland Way,Chames,ME,04498
274202,4889 North Lee,Laken,ME,04405
276122,4891 East Taylor Circle,Laken,ME,04405
276613,3256 West Forest Ave.,Belkas,ME,04012
276745,638 Lee Way,Chames,ME,04498
277188,4654 South Lakeview Street,Chames,ME,04498
277624,4203 South Green Street,Laken,ME,04405
278696,205 West Lincoln Circle,Crestview,ME,04608
280067,4319 East Jackson Way,Laken,ME,04405
284088,2068 South River,Belkas,ME,04012
284112,1746 West Smith Ave.,Crestview,ME,04608
284314,4937 West Poplar Avenue,Belkas,ME,04012
285831,3691 South Jackson Ave.,Chames,ME,04498
287987,3694 East Hickory St.,Laken,ME,04405
288619,3705 East Lee,Chames,ME,04498
290328,3114 West College Circle,Chames,ME,04498
290694,2569 Willow St.,Chames,ME,04498
291156,144 South Woodland Circle,Danniton,ME,03913
291486,590 East Smith Ave.,Danniton,ME,03913
291581,17 Railroad Circle,Laken,ME,04405
293428,1770 West Mill St.,Laken,ME,04405
293475,4773 West Pine Avenue,Chames,ME,04498
294173,3890 Forest Circle,Danniton,ME,03913
295399,3231 Main St.,Laken,ME,04405
295809,76 South Cherry St.,Laken,ME,04405
295821,3063 East Central Avenue,Crestview,ME,04608
297253,3720 South Jackson Way,Danniton,ME,03913
298743,1448 River,Laken,ME,04405
299903,3787 West Maple,Chames,ME,04498
300025,3355 South Valley Way,Crestview,ME,04608
300040,4055 Taylor Street,Danniton,ME,03913
300881,3658 East Park Avenue,Danniton,ME,03913
301505,2264 South Fourteenth Way,Chames,ME,04498
301974,2134 East Forest,Belkas,ME,04012
303230,4993 South Lee Circle,Laken,ME,04405
304485,2114 South Lakeview Circle,Danniton,ME,03913
304693,4777 Hickory,Danniton,ME,03913
305788,4617 North Cherry St.,Chames,ME,04498
306136,2793 Birch,Crestview,ME,04608
306417,4365 South Hickory,Chames,ME,04498
307123,4141 East Jackson Avenue,Danniton,ME,03913
307938,1955 South Pine Circle,Crestview,ME,04608
311376,2317 North Wilson St.,Belkas,ME,04012
311848,614 Ash Street,Crestview,ME,04608
312893,1256 Pine Avenue,Laken,ME,04405
313407,1843 West Center Street,Laken,ME,04405
314007,608 South Jackson Avenue,Laken,ME,04405
315369,2346 North Park Avenue,Crestview,ME,04608
315448,2571 West Pine St.,Belkas,ME,04012
317268,2013 East Birch Way,Belkas,ME,04012
317338,3365 South Meadow Avenue,Belkas,ME,04012
317424,4525 Green St.,Chames,ME,04498
318695,2415 East Church,Chames,ME,04498
320584,765 South Park St.,Chames,ME,04498
320850,3221 Main Street,Chames,ME,04498
322264,4859 East College Way,Crestview,ME,04608
323150,809 Fourteenth Way,Belkas,ME,04012
323988,4593 Railroad Ave.,Crestview,ME,04608
324570,2985 East Miller St.,Chames,ME,04498
325741,1751 West Valley Street,Laken,ME,04405
325813,3043 South Park St.,Chames,ME,04498
325910,2301 West Birch Circle,Crestview,ME,04608
327535,1263 Miller Circle,Crestview,ME,04608
327791,4486 West River,Crestview,ME,04608
329873,44 South Laurel St.,Laken,ME,04405
330107,783 West Mill Ave.,Danniton,ME,03913
330809,4161 West Forest,Chames,ME,04498
330819,3736 West Sixth Avenue,Danniton,ME,03913
331245,3903 South Ninth Street,Danniton,ME,03913
332091,4039 Fourteenth Avenue,Danniton,ME,03913
335167,2160 North Chestnut,Laken,ME,04405
335412,618 West Church,Crestview,ME,04608
335535,508 South Woodland Street,Crestview,ME,04608
338127,P.O. Box 25332,Danniton,ME,03913
338360,1636 North Oak Circle,Danniton,ME,03913
341171,4251 West Valley,Chames,ME,04498
341464,1281 North Woodland Circle,Danniton,ME,03913
341543,2405 Central Way,Danniton,ME,03913
341913,3927 North Taylor Circle,Laken,ME,04405
341989,3186 East Broadway Avenue,Danniton,ME,03913
342530,1373 Church Avenue,Laken,ME,04405
342765,573 West Ninth Circle,Danniton,ME,03913
342949,3837 Lakeview,Chames,ME,04498
343954,66 East Valley Way,Belkas,ME,04012
344308,1154 West Cherry,Crestview,ME,04608
345640,1725 South Wilson,Chames,ME,04498
345878,2617 River Ave.,Chames,ME,04498
346248,3100 East Birch Avenue,Laken,ME,04405
346588,3731 West Meadow Ave.,Crestview,ME,04608
347139,671 West Smith,Belkas,ME,04012
348204,4029 East Ash St.,Belkas,ME,04012
348604,2911 Sixth St.,Laken,ME,04405
348678,1703 West Woodland Way,Laken,ME,04405
352645,1988 North Jackson Way,Laken,ME,04405
352697,4169 North Oak,Danniton,ME,03913
354062,1100 West Cedar Circle,Crestview,ME,04608
354669,4953 South Forest Avenue,Danniton,ME,03913
355433,3517 South Railroad Avenue,Crestview,ME,04608
355974,1701 East Sixth St.,Chames,ME,04498
356093,1333 North Sycamore Circle,Crestview,ME,04608
357001,4587 South Birch Circle,Belkas,ME,04012
357115,2328 Fourteenth Circle,Crestview,ME,04608
357197,4640 Lee Avenue,Laken,ME,04405
357241,4367 Madison,Crestview,ME,04608
358270,797 North Cherry Ave.,Belkas,ME,04012
358750,937 North Sixth St.,Laken,ME,04405
359523,4843 North River St.,Crestview,ME,04608
360369,3307 Pine Street,Crestview,ME,04608
363610,2305 East Green,Laken,ME,04405
364503,1353 North Madison,Belkas,ME,04012
365673,3143 West Fourteenth Circle,Chames,ME,04498
366777,1680 West Lee,Danniton,ME,03913
367377,455 South Mill Street,Danniton,ME,03913
368485,862 Jefferson Street,Laken,ME,04405
369430,2414 South Laurel St.,Laken,ME,04405
370468,3274 South Fourteenth Avenue,Belkas,ME,04012
370483,3254 South Hickory Way,Chames,ME,04498
372396,1449 South Miller St.,Danniton,ME,03913
372481,1795 East Main Way,Laken,ME,04405
373263,1908 East Broadway,Belkas,ME,04012
373778,4667 Dogwood,Chames,ME,04498
374428,4791 South Franklin Circle,Danniton,ME,03913
374681,4957 South Madison Circle,Laken,ME,04405
378947,2622 South Green,Danniton,ME,03913
378954,2688 South Hickory,Laken,ME,04405
379100,861 South Park Way,Danniton,ME,03913
380399,3591 East River St.,Chames,ME,04498
380884,2637 West Laurel Ave.,Crestview,ME,04608
381055,2625 West Taylor St.,Laken,ME,04405
382591,3856 West Main Way,Chames,ME,04498
383412,2524 Center St.,Crestview,ME,04608
384011,556 South Lee Street,Belkas,ME,04012
385035,936 West Willow,Chames,ME,04498
385178,1163 East Jackson Way,Chames,ME,04498
385885,1642 West Main Avenue,Belkas,ME,04012
386050,2558 Fourteenth Circle,Crestview,ME,04608
386102,3489 East Birch Way,Laken,ME,04405
386156,1689 West Lee St.,Danniton,ME,03913
387850,1348 East Fourteenth,Chames,ME,04498
387906,2065 North Lakeview Street,Danniton,ME,03913
388536,4542 South Ash Street,Belkas,ME,04012
389060,1193 West Lee Street,Belkas,ME,04012
392226,1350 North Sunset,Belkas,ME,04012
395110,1560 North Wilson Way,Danniton,ME,03913
396487,4323 East Forest Way,Laken,ME,04405
397804,3217 Ninth Street,Belkas,ME,04012
398081,99 West Central Avenue,Chames,ME,04498
398171,1266 South Smith Way,Chames,ME,04498
398279,4691 South Woodland Way,Belkas,ME,04012
399496,1838 Valley,Belkas,ME,04012
400278,4282 South Hickory Ave.,Belkas,ME,04012
400416,1311 West Mill Avenue,Laken,ME,04405
400826,3338 East Church,Danniton,ME,03913
401359,3286 West Jackson,Laken,ME,04405
402816,3060 West Jefferson,Belkas,ME,04012
403143,3778 South Broadway St.,Chames,ME,04498
403452,2552 North Wilson Street,Belkas,ME,04012
404192,513 West Laurel Avenue,Belkas,ME,04012
404228,1706 South Ash Avenue,Chames,ME,04498
404737,304 East Jefferson Way,Chames,ME,04498
404782,2281 East Railroad Street,Laken,ME,04405
406172,4404 South Lincoln,Crestview,ME,04608
407209,3667 North Chestnut Street,Crestview,ME,04608
407462,754 North Forest Street,Belkas,ME,04012
407759,2117 Meadow Ave.,Laken,ME,04405
408171,3670 East Dogwood Ave.,Chames,ME,04498
408893,558 North Pine Avenue,Chames,ME,04498
409639,282 West Valley Avenue,Belkas,ME,04012
409707,1974 West Meadow St.,Crestview,ME,04608
414200,4524 Lincoln Street,Chames,ME,04498
415468,1125 Valley Avenue,Laken,ME,04405
416626,2245 West Smith,Crestview,ME,04608
419788,2687 Sixth Circle,Belkas,ME,04012
421085,3542 North Smith Ave.,Crestview,ME,04608
423064,1529 East Sycamore Ave.,Belkas,ME,04012
423206,4276 East Mill St.,Chames,ME,04498
423950,1286 South Central Way,Danniton,ME,03913
425390,1883 South Willow Street,Belkas,ME,04012
428106,4961 West Park,Crestview,ME,04608
428625,3590 South Oak Ave.,Chames,ME,04498
429326,3312 North Woodland Way,Laken,ME,04405
433391,157 West Maple Way,Laken,ME,04405
435314,3060 West Maple Way,Chames,ME,04498
435908,1236 North Sycamore Street,Laken,ME,04405
436565,3408 East River Avenue,Belkas,ME,04012
437189,776 Woodland,Chames,ME,04498
437632,2001 East Meadow St.,Danniton,ME,03913
437760,1049 South River Avenue,Belkas,ME,04012
437781,2340 North Lee Avenue,Belkas,ME,04012
438063,463 North Franklin Circle,Laken,ME,04405
438439,646 East Broadway Way,Belkas,ME,04012
438845,2887 River Ave.,Danniton,ME,03913
439565,2359 East College Ave.,Belkas,ME,04012
441316,1855 West Cherry Way,Belkas,ME,04012
441745,4223 West Meadow St.,Chames,ME,04498
442198,3600 East Cherry Way,Belkas,ME,04012
443550,4090 North Lakeview St.,Danniton,ME,03913
443905,2808 South Maple Ave.,Crestview,ME,04608
444480,1203 East Highland St.,Belkas,ME,04012
444516,4292 North Smith Circle,Crestview,ME,04608
444798,1109 West Railroad Circle,Chames,ME,04498
446575,1127 North Jefferson Ave.,Danniton,ME,03913
446971,2605 Franklin Circle,Chames,ME,04498
447067,1193 South Ridge Avenue,Chames,ME,04498
447598,541 Maple Circle,Belkas,ME,04012
447774,496 South Mill Way,Chames,ME,04498
448626,2940 West Wilson Avenue,Chames,ME,04498
448672,193 South Taylor St.,Chames,ME,04498
452504,2427 Chestnut Street,Belkas,ME,04012
452515,2242 South Cherry Ave.,Danniton,ME,03913
453517,471 East College St.,Belkas,ME,04012
454036,3035 West Broadway Avenue,Chames,ME,04498
454378,586 West Meadow St.,Laken,ME,04405
455452,377 East Highland Way,Chames,ME,04498
456891,506 West Ninth,Danniton,ME,03913
458195,4601 East Woodland Way,Laken,ME,04405
459697,4978 River Avenue,Danniton,ME,03913
463469,2172 North Chestnut St.,Belkas,ME,04012
464270,3041 East Park,Danniton,ME,03913
465990,829 South Taylor Way,Danniton,ME,03913
466381,2065 South Ninth St.,Belkas,ME,04012
467610,3855 West Mill St.,Belkas,ME,04012
467636,3217 South Oak St.,Crestview,ME,04608
467754,43 Main Circle,Belkas,ME,04012
468014,2314 North Broadway St.,Laken,ME,04405
468381,4582 East Laurel Circle,Danniton,ME,03913
469529,2807 Church Circle,Belkas,ME,04012
475236,1200 North Ninth Circle,Chames,ME,04498
476227,3744 North Cherry Avenue,Danniton,ME,03913
478240,1826 South Broadway,Chames,ME,04498
478936,4646 West Franklin Way,Laken,ME,04405
479200,4094 South Railroad Avenue,Chames,ME,04498
479815,163 Willow Avenue,Chames,ME,04498
480088,2739 North Lakeview Street,Crestview,ME,04608
482699,2308 Ridge Ave.,Chames,ME,04498
485890,569 North Highland St.,Chames,ME,04498
486182,4126 Ridge Street,Danniton,ME,03913
486193,1430 South Center Ave.,Danniton,ME,03913
486448,2358 North Oak Way,Chames,ME,04498
486541,1427 East Miller Street,Belkas,ME,04012
490451,2933 South Hickory,Laken,ME,04405
490892,71 West Fourteenth Ave.,Belkas,ME,04012
492463,4435 East Franklin,Laken,ME,04405
495463,1371 East Lee,Laken,ME,04405
496529,4075 East River,Laken,ME,04405
499308,2312 North Park Ave.,Crestview,ME,04608
500429,760 West Ninth Circle,Laken,ME,04405
500555,4908 North Sycamore Street,Chames,ME,04498
500614,3902 East Miller Street,Chames,ME,04498
501245,293 West Birch Circle,Chames,ME,04498
502602,2061 East River St.,Danniton,ME,03913
503005,2903 North Smith Ave.,Chames,ME,04498
504867,4482 West Mill,Chames,ME,04498
505145,2813 North Wilson,Laken,ME,04405
505458,1862 East Woodland Way,Chames,ME,04498
506017,1514 North Maple St.,Danniton,ME,03913
507265,1994 North Poplar Avenue,Belkas,ME,04012
508053,4223 East Sunset Ave.,Danniton,ME,03913
511090,1637 North Woodland Way,Crestview,ME,04608
511193,2559 East Franklin Way,Crestview,ME,04608
511505,891 South Sixth Way,Chames,ME,04498
512168,2419 West Sycamore Street,Crestview,ME,04608
512303,1985 Pine Avenue,Laken,ME,04405
512367,3617 Church Avenue,Belkas,ME,04012
512370,4038 Chestnut Avenue,Danniton,ME,03913
512692,2940 East Smith Ave.,Laken,ME,04405
514432,1915 Ash Way,Danniton,ME,03913
515141,1740 East Ninth St.,Danniton,ME,03913
516522,4301 East Pine Ave.,Chames,ME,04498
518847,1861 Central Ave.,Laken,ME,04405
518961,4715 East Center Way,Crestview,ME,04608
522824,3452 North Smith Circle,Chames,ME,04498
522979,3657 East Park Street,Laken,ME,04405
523243,1183 South Center Avenue,Danniton,ME,03913
525026,1075 North Ash Avenue,Danniton,ME,03913
525634,1074 North Cedar Street,Chames,ME,04498
527612,2602 West Mill,Crestview,ME,04608
528006,3337 East Main,Belkas,ME,04012
528756,4585 River Ave.,Crestview,ME,04608
529397,3370 Smith Avenue,Danniton,ME,03913
530853,PO Box 19877,Chames,ME,04498
531221,508 North Madison Street,Crestview,ME,04608
531309,1383 North Lincoln,Laken,ME,04405
533288,233 North Cherry Way,Belkas,ME,04012
533576,3713 South Lee St.,Crestview,ME,04608
534747,3106 South Taylor,Laken,ME,04405
535848,2308 East Mill St.,Laken,ME,04405
536755,3246 West Smith Avenue,Danniton,ME,03913
538328,2474 North Taylor Circle,Chames,ME,04498
538362,3208 Dogwood Circle,Chames,ME,04498
539140,4399 West Jackson St.,Chames,ME,04498
539206,4030 South Smith St.,Laken,ME,04405
540639,3535 South Dogwood Circle,Crestview,ME,04608
542155,3243 East Poplar Ave.,Crestview,ME,04608
547267,2435 East Oak St.,Danniton,ME,03913
547291,105 Chestnut Circle,Belkas,ME,04012
549770,100 East Madison Avenue,Chames,ME,04498
550415,336 West Main Way,Belkas,ME,04012
550469,4162 North Center Street,Chames,ME,04498
552646,2170 West Lee Circle,Belkas,ME,04012
553638,670 North Franklin Circle,Laken,ME,04405
554789,2701 Wilson Avenue,Laken,ME,04405
554849,2053 West Park Circle,Danniton,ME,03913
555463,4462 East Oak Ave.,Laken,ME,04405
556498,4951 South Fourteenth Way,Belkas,ME,04012
556557,3766 College,Chames,ME,04498
557675,2323 West Ninth Avenue,Danniton,ME,03913
558840,1913 South Jackson Way,Laken,ME,04405
559973,4899 South Church Way,Chames,ME,04498
560890,1223 West Cherry Street,Chames,ME,04498
562583,4546 North Hickory Circle,Danniton,ME,03913
562729,3846 South River St.,Laken,ME,04405
562842,2446 Smith Ave.,Belkas,ME,04012
563365,3712 Maple Avenue,Crestview,ME,04608
564771,2067 South Railroad Way,Laken,ME,04405
565856,4655 East Willow Circle,Belkas,ME,04012
566809,4524 East Madison Street,Belkas,ME,04012
567434,2800 East Mill Ave.,Danniton,ME,03913
567952,2137 West Valley,Danniton,ME,03913
567987,2672 West Dogwood Ave.,Belkas,ME,04012
568396,4024 North Ash St.,Belkas,ME,04012
568627,3269 North Lakeview Street,Crestview,ME,04608
569982,2955 South Lincoln St.,Danniton,ME,03913
570295,3659 South Laurel Avenue,Danniton,ME,03913
570452,2905 East Mill Avenue,Laken,ME,04405
571320,3321 South Jackson Way,Crestview,ME,04608
571668,510 Maple Avenue,Belkas,ME,04012
572055,163 North Park Avenue,Chames,ME,04498
575230,198 Cherry Circle,Belkas,ME,04012
576064,728 Valley Way,Belkas,ME,04012
576877,2414 Maple St.,Crestview,ME,04608
577493,3371 East Central Way,Laken,ME,04405
579596,2219 West Woodland St.,Danniton,ME,03913
580158,249 West Ninth Ave.,Laken,ME,04405
580931,1913 North Willow St.,Danniton,ME,03913
582252,2764 West Ash Circle,Crestview,ME,04608
582511,3963 North Maple Street,Chames,ME,04498
583016,2643 North Woodland St.,Belkas,ME,04012
583141,3102 West Franklin Ave.,Laken,ME,04405
583239,69 South Maple Way,Laken,ME,04405
585134,4837 South Franklin,Laken,ME,04405
587690,3293 South Smith St.,Chames,ME,04498
588188,3975 North Lincoln Street,Laken,ME,04405
588401,2925 Meadow Way,Laken,ME,04405
588953,3606 Dogwood Ave.,Crestview,ME,04608
589211,2348 East Laurel Way,Danniton,ME,03913
589975,3851 East Hickory Avenue,Crestview,ME,04608
590488,1909 West River St.,Belkas,ME,04012
590761,3716 South Ash St.,Chames,ME,04498
592825,722 South Birch Circle,Laken,ME,04405
594789,4418 South Taylor Ave.,Belkas,ME,04012
595348,1079 River Street,Laken,ME,04405
595578,2551 West Jackson Circle,Crestview,ME,04608
598845,901 East Pine St.,Belkas,ME,04012
599172,354 East Railroad Street,Laken,ME,04405
600193,1466 North Center St.,Laken,ME,04405
602231,2729 South Church Way,Chames,ME,04498
603370,3103 West Wilson Street,Laken,ME,04405
603900,3030 East Miller,Danniton,ME,03913
603986,1720 North Sycamore Street,Crestview,ME,04608
604383,4528 Central Way,Laken,ME,04405
604680,54 East Green Circle,Belkas,ME,04012
604919,714 North Valley St.,Danniton,ME,03913
604971,2660 West Maple St.,Laken,ME,04405
605268,1964 Maple Street,Danniton,ME,03913
605845,4938 West Green Avenue,Crestview,ME,04608
608872,2728 North Church St.,Chames,ME,04498
610913,3419 Smith St.,Crestview,ME,04608
611015,1676 Meadow Way,Chames,ME,04498
611092,3451 West Woodland Avenue,Laken,ME,04405
612264,191 East Forest Avenue,Chames,ME,04498
614267,501 South Ridge St.,Crestview,ME,04608
615410,1872 North Sixth Circle,Chames,ME,04498
615468,1449 East Hickory Way,Crestview,ME,04608
615946,1407 West Miller Street,Danniton,ME,03913
616341,110 East College St.,Crestview,ME,04608
618196,1056 South Hickory Circle,Crestview,ME,04608
618673,53 East Ninth,Laken,ME,04405
618798,3731 West Forest Avenue,Danniton,ME,03913
619118,1910 South Poplar Avenue,Danniton,ME,03913
621221,3399 West Pine Avenue,Crestview,ME,04608
621995,1135 East College Way,Crestview,ME,04608
623067,3421 Willow,Crestview,ME,04608
625381,1043 East Center Avenue,Danniton,ME,03913
625731,3334 Woodland Street,Crestview,ME,04608
625995,2560 Valley Street,Belkas,ME,04012
626900,143 Forest St.,Crestview,ME,04608
627161,2277 Madison Street,Chames,ME,04498
628012,3520 South Park Way,Belkas,ME,04012
628175,4447 North Lee Street,Belkas,ME,04012
628451,1857 West Fourteenth St.,Danniton,ME,03913
630426,2115 East Taylor Avenue,Crestview,ME,04608
630830,3426 North Center Way,Belkas,ME,04012
630886,1794 South Woodland,Belkas,ME,04012
632830,3696 West Cedar Circle,Laken,ME,04405
633594,3624 South Church St.,Danniton,ME,03913
634530,3656 South Broadway Circle,Danniton,ME,03913
634704,4554 East Cherry Street,Belkas,ME,04012
638878,1557 North Highland Circle,Crestview,ME,04608
641339,83 Main Way,Crestview,ME,04608
641837,1419 East Jackson Ave.,Danniton,ME,03913
643294,920 West Poplar Circle,Belkas,ME,04012
643628,4326 South Woodland Circle,Belkas,ME,04012
644966,4755 West Birch Circle,Belkas,ME,04012
645214,4793 East Oak St.,Danniton,ME,03913
645410,4135 East Central Avenue,Chames,ME,04498
645474,2851 West Hickory St.,Crestview,ME,04608
646866,2277 North Broadway Ave.,Crestview,ME,04608
647236,3367 Fourteenth Street,Danniton,ME,03913
647284,1593 South Birch Street,Danniton,ME,03913
647383,4356 South Ninth,Chames,ME,04498
648649,4205 West Willow Ave.,Chames,ME,04498
649064,364 West Miller Avenue,Crestview,ME,04608
650049,3587 West Mill Street,Danniton,ME,03913
650355,4868 West Wilson St.,Belkas,ME,04012
650517,4262 South Central Way,Chames,ME,04498
650773,4913 North Franklin Circle,Laken,ME,04405
651421,4186 East Sunset Avenue,Danniton,ME,03913
651453,1922 Sixth Way,Crestview,ME,04608
651527,3248 West Maple,Danniton,ME,03913
652860,3390 South Pine,Crestview,ME,04608
653155,1062 West Lee Way,Chames,ME,04498
653222,1589 West Church Avenue,Belkas,ME,04012
653448,3750 South Lakeview Way,Laken,ME,04405
653745,662 Central Circle,Crestview,ME,04608
654650,556 North Woodland Avenue,Crestview,ME,04608
655564,1257 West Birch St.,Danniton,ME,03913
656370,4586 West Forest Way,Crestview,ME,04608
657378,PO Box 51222,Danniton,ME,03913
657387,1190 West Madison Avenue,Crestview,ME,04608
657426,3104 West Miller Avenue,Danniton,ME,03913
658793,3654 West Ninth Ave.,Chames,ME,04498
662556,605 Wilson St.,Belkas,ME,04012
664404,4354 South Jefferson St.,Belkas,ME,04012
664608,176 East Poplar St.,Belkas,ME,04012
665145,1638 North Highland Circle,Crestview,ME,04608
668754,331 South Dogwood Ave.,Danniton,ME,03913
670451,3961 South Laurel Street,Crestview,ME,04608
670639,2916 West Smith Street,Laken,ME,04405
670999,2757 East Jackson Way,Belkas,ME,04012
671155,3469 South Central Ave.,Belkas,ME,04012
672532,3055 North Lincoln,Laken,ME,04405
673184,3392 Ninth Ave.,Chames,ME,04498
673985,1546 East Maple Street,Belkas,ME,04012
674096,1275 North Broadway Ave.,Belkas,ME,04012
674311,3583 West Jackson Way,Laken,ME,04405
674802,2413 Railroad,Danniton,ME,03913
675889,544 East Sixth Avenue,Crestview,ME,04608
676352,3356 East Railroad,Chames,ME,04498
676532,2805 East Madison,Danniton,ME,03913
677051,4167 East Ninth Circle,Laken,ME,04405
677509,4267 North Miller Circle,Danniton,ME,03913
677559,3728 Miller St.,Crestview,ME,04608
678587,1892 Lee St.,Danniton,ME,03913
678627,2389 West River Street,Belkas,ME,04012
678950,34 North Dogwood Way,Danniton,ME,03913
679883,3818 Pine Circle,Crestview,ME,04608
683334,2450 North Sycamore,Chames,ME,04498
683390,3595 East Poplar Avenue,Crestview,ME,04608
686299,4570 Sixth St.,Crestview,ME,04608
687399,2580 East Highland St.,Danniton,ME,03913
687476,3927 West Railroad Avenue,Chames,ME,04498
687497,3501 East Laurel Way,Chames,ME,04498
687724,3402 West Smith Ave.,Laken,ME,04405
688272,4762 East Lee Avenue,Laken,ME,04405
690417,2111 East Center Street,Belkas,ME,04012
691917,2921 East Madison Street,Laken,ME,04405
692693,4847 South Hickory Way,Danniton,ME,03913
692993,958 North Lee Ave.,Chames,ME,04498
694180,368 West Railroad Avenue,Laken,ME,04405
694875,2256 East Hickory Circle,Laken,ME,04405
695373,4135 College Ave.,Chames,ME,04498
696399,808 South Valley Way,Chames,ME,04498
696587,1347 South Laurel Street,Danniton,ME,03913
696698,891 South Sunset Circle,Chames,ME,04498
697409,3736 South Sunset,Danniton,ME,03913
697978,351 South Wilson Circle,Danniton,ME,03913
698883,3042 West Smith Way,Danniton,ME,03913
698983,891 North River St.,Danniton,ME,03913
699483,1522 North Hickory Circle,Laken,ME,04405
700065,1704 Fourteenth Street,Crestview,ME,04608
701006,1204 East Park St.,Belkas,ME,04012
704439,3091 Fourteenth,Chames,ME,04498
706311,3934 Valley Circle,Danniton,ME,03913
707185,4001 East Jackson,Laken,ME,04405
707460,3205 East Ridge Way,Crestview,ME,04608
707493,1942 South Oak Circle,Crestview,ME,04608
708312,2726 Wilson Avenue,Laken,ME,04405
709610,4003 North Meadow Street,Chames,ME,04498
710613,1686 East Ash Avenue,Laken,ME,04405
711313,2818 Chestnut Ave.,Laken,ME,04405
712595,3799 East Ridge Way,Chames,ME,04498
712681,4602 West Ninth Circle,Laken,ME,04405
712998,3229 River St.,Danniton,ME,03913
713508,4682 Ash,Crestview,ME,04608
713570,4585 North Park Circle,Chames,ME,04498
713684,4390 Valley St.,Crestview,ME,04608
715404,3736 South Forest Ave.,Laken,ME,04405
715703,2167 Laurel St.,Belkas,ME,04012
716766,4885 North Sycamore Avenue,Crestview,ME,04608
717787,209 North Lee Avenue,Crestview,ME,04608
718375,3126 South Dogwood Street,Laken,ME,04405
718473,4673 East Hickory Ave.,Chames,ME,04498
718517,2235 South Hickory Circle,Crestview,ME,04608
719435,1336 East Hickory Ave.,Laken,ME,04405
720021,1664 East Maple St.,Crestview,ME,04608
720377,4179 West Forest St.,Laken,ME,04405
721084,87 South Sunset St.,Danniton,ME,03913
721863,515 North Jackson St.,Danniton,ME,03913
721985,1707 Sunset Avenue,Danniton,ME,03913
722104,832 South Chestnut St.,Danniton,ME,03913
722805,1096 North Sixth St.,Crestview,ME,04608
723178,3656 North Taylor,Belkas,ME,04012
723414,2912 Fourteenth Circle,Crestview,ME,04608
723931,4487 Maple St.,Belkas,ME,04012
725055,1772 North Meadow Ave.,Crestview,ME,04608
725753,4503 North Lee Circle,Danniton,ME,03913
725806,4403 North Madison St.,Crestview,ME,04608
726224,355 West Wilson Avenue,Chames,ME,04498
727451,3188 West Poplar Way,Laken,ME,04405
727575,2325 South Sycamore Avenue,Danniton,ME,03913
728505,691 Jackson Ave.,Chames,ME,04498
728798,3370 Ninth Ave.,Crestview,ME,04608
729067,4912 West Church Way,Laken,ME,04405
730275,3022 East Poplar,Laken,ME,04405
730751,P.O. Box 31,Danniton,ME,03913
731251,4407 East Center Avenue,Belkas,ME,04012
731669,4986 South Lee Way,Chames,ME,04498
731892,220 South Valley Way,Chames,ME,04498
732294,565 East Wilson Avenue,Laken,ME,04405
733009,4660 Sixth Avenue,Chames,ME,04498
736705,3998 East Smith Way,Danniton,ME,03913
737178,4390 West Oak Street,Laken,ME,04405
737872,4014 South Birch,Laken,ME,04405
737988,2619 Laurel Avenue,Belkas,ME,04012
738353,4611 West Oak,Belkas,ME,04012
739765,2103 South Sunset Way,Chames,ME,04498
740236,822 West Railroad Way,Belkas,ME,04012
740297,1026 East Cherry Avenue,Laken,ME,04405
740491,4531 North Taylor Ave.,Laken,ME,04405
740509,3212 East Forest Circle,Crestview,ME,04608
740515,417 East Highland Circle,Danniton,ME,03913
741657,436 South Sixth Avenue,Danniton,ME,03913
742664,1539 South Wilson St.,Belkas,ME,04012
744455,2223 Maple St.,Chames,ME,04498
745281,3872 South Wilson Way,Chames,ME,04498
746813,1977 West Maple Avenue,Crestview,ME,04608
746877,4351 West Dogwood Street,Belkas,ME,04012
748218,1948 West Broadway St.,Chames,ME,04498
749089,368 West Chestnut Street,Crestview,ME,04608
749307,1604 South Sunset Circle,Laken,ME,04405
749452,3462 South Sunset,Danniton,ME,03913
749621,3920 East Forest St.,Laken,ME,04405
749971,4838 West Taylor Avenue,Belkas,ME,04012
750101,4115 West Ash,Belkas,ME,04012
752915,4833 West Fourteenth Way,Chames,ME,04498
753022,4520 East Fourteenth Avenue,Crestview,ME,04608
753924,4246 West Sunset St.,Laken,ME,04405
755146,3161 South Franklin Way,Belkas,ME,04012
755270,3709 South Lincoln St.,Crestview,ME,04608
755368,3561 West Jefferson Circle,Belkas,ME,04012
755980,927 North Center Ave.,Danniton,ME,03913
759063,1898 Franklin St.,Danniton,ME,03913
759811,4480 West Maple Way,Crestview,ME,04608
760607,620 East Chestnut St.,Crestview,ME,04608
761430,4807 Jefferson Ave.,Chames,ME,04498
762189,1821 Sixth Avenue,Belkas,ME,04012
762866,2119 West Laurel Circle,Chames,ME,04498
763344,4928 South Ridge Street,Chames,ME,04498
764591,2646 Oak St.,Danniton,ME,03913
766253,255 South Central Circle,Danniton,ME,03913
767648,2678 East Lee Street,Belkas,ME,04012
768972,2111 South Hickory Street,Chames,ME,04498
770901,3618 North Chestnut Way,Belkas,ME,04012
771762,550 North Wilson St.,Danniton,ME,03913
773063,2828 Center,Belkas,ME,04012
774321,3482 North Cedar Street,Belkas,ME,04012
774764,2270 North Birch St.,Belkas,ME,04012
775001,1033 North Miller Avenue,Belkas,ME,04012
775323,3437 West Mill,Belkas,ME,04012
776742,2570 West Mill Ave.,Crestview,ME,04608
776854,308 East Valley Ave.,Crestview,ME,04608
778302,4148 East Sixth Circle,Crestview,ME,04608
780856,747 Franklin St.,Belkas,ME,04012
783292,1707 Chestnut Street,Belkas,ME,04012
783571,4335 South Green Avenue,Belkas,ME,04012
785479,2549 West Center St.,Danniton,ME,03913
786176,3725 South Sunset Circle,Belkas,ME,04012
787507,406 South River St.,Chames,ME,04498
787787,2442 Lee Ave.,Belkas,ME,04012
792976,3556 North River St.,Chames,ME,04498
793290,524 North Lakeview Way,Belkas,ME,04012
796260,3303 Meadow Way,Laken,ME,04405
796794,4793 North Smith Ave.,Crestview,ME,04608
798299,4793 Lee Way,Danniton,ME,03913
800011,1247 North Ridge Way,Crestview,ME,04608
800551,2033 East Pine Way,Crestview,ME,04608
801095,3479 East Willow Circle,Danniton,ME,03913
801154,3503 North Chestnut Circle,Danniton,ME,03913
803812,2534 East Miller,Chames,ME,04498
804409,776 East Forest Circle,Belkas,ME,04012
804655,1914 East Lee Way,Laken,ME,04405
805558,2709 West Highland St.,Crestview,ME,04608
805775,322 East Chestnut St.,Laken,ME,04405
806968,1976 Lakeview Way,Belkas,ME,04012
807309,3118 West Center Ave.,Chames,ME,04498
807318,4154 Highland Way,Crestview,ME,04608
807627,237 West Wilson,Chames,ME,04498
807650,2003 Sunset Avenue,Laken,ME,04405
810479,4247 West Park St.,Crestview,ME,04608
811704,365 Chestnut,Crestview,ME,04608
812117,2476 East Lee Street,Crestview,ME,04608
813109,878 Sixth Avenue,Laken,ME,04405
813452,1408 South Jackson Way,Danniton,ME,03913
814282,3735 South Sycamore Way,Crestview,ME,04608
814332,606 West Railroad Avenue,Belkas,ME,04012
815295,1341 East River Way,Chames,ME,04498
815974,4597 Green Avenue,Crestview,ME,04608
817192,3927 North Woodland Way,Belkas,ME,04012
817369,2756 West Fourteenth Avenue,Crestview,ME,04608
817630,3108 North Maple Circle,Crestview,ME,04608
817644,2633 West Main Way,Belkas,ME,04012
817793,3273 West Sixth St.,Crestview,ME,04608
818646,1306 West Sixth Circle,Crestview,ME,04608
819294,2136 South Maple St.,Laken,ME,04405
819572,237 South Ridge St.,Belkas,ME,04012
820051,967 North Green Avenue,Chames,ME,04498
820295,3083 Franklin Avenue,Chames,ME,04498
821265,3165 College,Danniton,ME,03913
822614,4391 South Forest Circle,Chames,ME,04498
823694,2855 Jackson St.,Chames,ME,04498
824676,794 North Forest Avenue,Chames,ME,04498
826070,4177 West Maple Way,Chames,ME,04498
826399,3708 East Maple Circle,Chames,ME,04498
828128,2485 South Miller,Danniton,ME,03913
829633,894 West Sixth Way,Crestview,ME,04608
830348,3643 Lee Street,Laken,ME,04405
831602,942 East Sixth,Danniton,ME,03913
831935,60 Center Way,Belkas,ME,04012
832175,819 South Railroad,Crestview,ME,04608
832176,1579 East Green Ave.,Danniton,ME,03913
832422,3918 West Highland Avenue,Crestview,ME,04608
832500,3763 East Laurel Street,Laken,ME,04405
832583,105 North Green Circle,Crestview,ME,04608
834393,4942 East Lakeview Street,Belkas,ME,04012
836794,1320 Franklin,Laken,ME,04405
838285,1438 South Center Ave.,Crestview,ME,04608
838788,4176 North Church Ave.,Laken,ME,04405
839643,4656 North Park Way,Crestview,ME,04608
839907,139 North Highland Ave.,Danniton,ME,03913
841818,4767 West Lakeview,Belkas,ME,04012
846263,103 North Smith St.,Laken,ME,04405
848356,271 North Valley Avenue,Belkas,ME,04012
849488,2597 West Broadway Circle,Danniton,ME,03913
850558,691 College Way,Chames,ME,04498
850563,2598 Lee,Danniton,ME,03913
851360,1877 East Meadow Ave.,Chames,ME,04498
852488,2894 East Central Circle,Laken,ME,04405
852707,3758 Maple St.,Laken,ME,04405
854143,3938 East Chestnut Way,Belkas,ME,04012
856042,3507 West Miller Circle,Chames,ME,04498
857250,862 Fourteenth Ave.,Laken,ME,04405
857423,3714 South College Way,Laken,ME,04405
858361,1171 East Center Street,Crestview,ME,04608
859474,1379 West Green Avenue,Danniton,ME,03913
861234,1050 Smith Circle,Chames,ME,04498
862561,2418 East Railroad Way,Laken,ME,04405
866116,92 South Madison Ave.,Belkas,ME,04012
866982,4761 South Taylor Circle,Belkas,ME,04012
868063,4286 South Railroad Avenue,Chames,ME,04498
868902,1788 West Taylor Street,Danniton,ME,03913
869425,760 West Jefferson Way,Laken,ME,04405
869514,224 South Woodland Way,Laken,ME,04405
869857,4633 North River Way,Crestview,ME,04608
869961,1219 West Lee St.,Laken,ME,04405
871248,4077 Franklin St.,Crestview,ME,04608
872504,2523 Highland Circle,Chames,ME,04498
872542,4401 East College Street,Chames,ME,04498
872947,498 South Sunset Way,Laken,ME,04405
873051,4056 Lee Ave.,Belkas,ME,04012
873128,924 Broadway Street,Chames,ME,04498
873414,943 North Ninth Ave.,Danniton,ME,03913
873895,4524 South Ninth Circle,Belkas,ME,04012
875389,2615 Lakeview Avenue,Belkas,ME,04012
876197,3861 North Maple St.,Crestview,ME,04608
877629,4585 South Dogwood,Crestview,ME,04608
878425,592 North Ninth Circle,Belkas,ME,04012
878708,2879 North Dogwood St.,Crestview,ME,04608
879429,773 South Jefferson Ave.,Belkas,ME,04012
880680,3078 West Lee St.,Chames,ME,04498
881479,2064 North Smith St.,Crestview,ME,04608
883282,583 South River Way,Crestview,ME,04608
884819,1561 North Railroad,Danniton,ME,03913
887050,2551 West Main Circle,Chames,ME,04498
887899,4941 North Miller Ave.,Danniton,ME,03913
889392,2854 North Church Ave.,Crestview,ME,04608
890033,4357 South Poplar Street,Chames,ME,04498
890713,2754 North Jefferson Avenue,Belkas,ME,04012
891257,2352 West Franklin Way,Danniton,ME,03913
892141,531 East Cedar,Laken,ME,04405
893816,2364 Green Way,Danniton,ME,03913
894031,3676 North Broadway Way,Laken,ME,04405
895177,1566 West Park Street,Crestview,ME,04608
895953,4918 West Church Circle,Chames,ME,04498
896141,1187 Ninth Street,Belkas,ME,04012
898506,3977 East Lee,Danniton,ME,03913
898950,2015 Park Way,Chames,ME,04498
899535,834 East Main Circle,Laken,ME,04405
900190,614 South Willow Street,Laken,ME,04405
902814,857 West Park St.,Danniton,ME,03913
903882,1550 South Mill Way,Belkas,ME,04012
904621,2617 South Wilson Way,Belkas,ME,04012
904646,2844 North Forest Way,Laken,ME,04405
907408,2978 East Maple Ave.,Crestview,ME,04608
908136,565 West Sycamore St.,Laken,ME,04405
908872,4793 North Cherry St.,Crestview,ME,04608
909223,4618 North Church Street,Chames,ME,04498
909331,3365 North Cherry Ave.,Belkas,ME,04012
909787,2779 West Madison Way,Belkas,ME,04012
912695,853 Chestnut Street,Chames,ME,04498
913388,4730 East Pine,Crestview,ME,04608
915073,191 West Miller St.,Danniton,ME,03913
915539,2840 West Laurel,Danniton,ME,03913
920380,298 East Lakeview Street,Belkas,ME,04012
920898,716 West Park St.,Chames,ME,04498
921247,86 Forest Ave.,Belkas,ME,04012
921491,1797 East Oak Ave.,Laken,ME,04405
922691,712 South Valley St.,Crestview,ME,04608
925783,2162 West Broadway Way,Chames,ME,04498
925807,905 Birch Way,Crestview,ME,04608
926406,1832 Lincoln Circle,Chames,ME,04498
926836,736 West Maple St.,Crestview,ME,04608
928494,3367 East Church Way,Danniton,ME,03913
930620,1003 Laurel Avenue,Crestview,ME,04608
931372,3581 Forest St.,Laken,ME,04405
932365,510 South Forest Way,Laken,ME,04405
932674,4603 East Center St.,Belkas,ME,04012
932929,3454 West Cedar Circle,Crestview,ME,04608
933032,1394 West Center Ave.,Danniton,ME,03913
933411,1224 Sixth Ave.,Chames,ME,04498
936615,259 South Sunset Avenue,Chames,ME,04498
936705,4971 East Church Way,Chames,ME,04498
938664,2281 West Cedar Way,Belkas,ME,04012
938808,2707 South Church Ave.,Laken,ME,04405
939060,2380 North Lee Way,Crestview,ME,04608
940478,1830 Main,Belkas,ME,04012
940566,2948 North Cedar,Chames,ME,04498
942650,4595 South Lakeview Way,Danniton,ME,03913
943492,4193 South Madison Ave.,Crestview,ME,04608
943808,2927 East College Way,Chames,ME,04498
944156,1786 East Pine Ave.,Crestview,ME,04608
945471,729 West Pine Avenue,Danniton,ME,03913
945533,968 East Railroad Ave.,Chames,ME,04498
946990,1816 South Lee Street,Laken,ME,04405
950287,3395 Lee Way,Danniton,ME,03913
950574,1542 South Church Circle,Chames,ME,04498
950913,4147 Madison Ave.,Danniton,ME,03913
952886,4784 South Sixth Avenue,Crestview,ME,04608
953319,4716 West Meadow Avenue,Laken,ME,04405
954450,2821 East Willow Way,Laken,ME,04405
954513,587 Valley Circle,Belkas,ME,04012
954741,1569 North Cedar Circle,Belkas,ME,04012
954914,409 East Woodland Avenue,Chames,ME,04498
956074,661 North Maple Way,Danniton,ME,03913
956666,1105 South Highland St.,Chames,ME,04498
957062,2866 West Meadow Ave.,Laken,ME,04405
957222,4877 South Church,Danniton,ME,03913
958512,1748 North Ninth Circle,Chames,ME,04498
959234,4550 North Birch Avenue,Laken,ME,04405
961712,4269 West Lee Ave.,Belkas,ME,04012
962410,2357 East Lee Street,Laken,ME,04405
964001,367 Meadow Circle,Danniton,ME,03913
964441,4505 North Jackson Avenue,Chames,ME,04498
964548,1507 North Lakeview St.,Chames,ME,04498
965234,4459 River Ave.,Belkas,ME,04012
966043,202 East Sunset,Chames,ME,04498
966519,4844 South Fourteenth St.,Laken,ME,04405
969990,2259 South Madison Circle,Danniton,ME,03913
970977,3775 West Birch Avenue,Crestview,ME,04608
971421,198 East Forest,Crestview,ME,04608
972621,1825 West Lincoln Ave.,Chames,ME,04498
972757,4891 East Sunset Ave.,Crestview,ME,04608
976329,2541 South Birch St.,Danniton,ME,03913
976819,1445 North Jackson Way,Belkas,ME,04012
977151,3022 Church Ave.,Laken,ME,04405
977879,3221 South Woodland Circle,Belkas,ME,04012
978225,1662 East Meadow St.,Danniton,ME,03913
978744,1958 South Lincoln,Crestview,ME,04608
979603,642 North Broadway Ave.,Danniton,ME,03913
981370,2161 East Maple Way,Chames,ME,04498
982281,1937 South Laurel Ave.,Danniton,ME,03913
982915,4778 Ninth Circle,Crestview,ME,04608
983194,3332 South Central Way,Chames,ME,04498
983524,2775 Oak,Crestview,ME,04608
984411,452 West Main Avenue,Belkas,ME,04012
985233,2859 Poplar,Danniton,ME,03913
985372,3557 East Highland Street,Laken,ME,04405
986734,2517 West Miller Circle,Belkas,ME,04012
987179,3916 Lakeview Way,Danniton,ME,03913
987675,4094 South College Circle,Danniton,ME,03913
988230,4713 South Laurel Circle,Danniton,ME,03913
989708,3815 East Laurel St.,Danniton,ME,03913
989778,2966 North Wilson Avenue,Laken,ME,04405
990916,4603 West Chestnut St.,Danniton,ME,03913
991140,4540 North Central Way,Chames,ME,04498
991764,2888 East Smith Circle,Belkas,ME,04012
992096,945 East Pine Way,Laken,ME,04405
992469,3846 North Woodland,Danniton,ME,03913
994065,3714 West Woodland Street,Danniton,ME,03913
997086,3105 West Ash Way,Chames,ME,04498
998294,4528 East Jefferson Street,Chames,ME,04498
999626,4007 Taylor,Chames,ME,04498
